GSAT0101 (PRN E11)      
1 37846U 11060A   24108.13188032 -.00000109  00000+0  00000+0 0  9996
2 37846  57.1268   3.1849 0004198  17.2268 342.8170  1.70476125 77633
GSAT0102 (PRN E12)      
1 37847U 11060B   24109.51332567 -.00000105  00000+0  00000+0 0  9990
2 37847  57.1276   3.1475 0004656 354.8908 178.7769  1.70475481 77788
GSAT0103 (PRN E19)      
1 38857U 12055A   24108.75768433  .00000057  00000+0  00000+0 0  9992
2 38857  55.3787 123.2644 0006006 274.6359  85.3423  1.70473718 71672
GSAT0104 (PRN E20)      
1 38858U 12055B   24107.81109763  .00000052  00000+0  00000+0 0  9999
2 38858  55.3847 123.3387 0002075 284.5440  75.4769  1.64592225   109
GSAT0201 (PRN E18)      
1 40128U 14050A   24108.18125959 -.00000056  00000+0  00000+0 0  9990
2 40128  49.7210 305.5122 1609021 148.8399 221.7867  1.85519593 63647
GSAT0202 (PRN E14)      
1 40129U 14050B   24108.43978170 -.00000055  00000+0  00000+0 0  9999
2 40129  49.7381 304.5776 1607559 149.6536 220.7224  1.85520243 65818
GSAT0203 (PRN E26)      
1 40544U 15017A   24107.32457019 -.00000111  00000+0  00000+0 0  9998
2 40544  56.9220   3.1491 0002581 302.4312  57.5725  1.70475658 55703
GSAT0204 (PRN E22)      
1 40545U 15017B   24108.16524585 -.00000109  00000+0  00000+0 0  9992
2 40545  56.9283   3.1414 0002272 284.8131  75.1912  1.70475596 18767
GSAT0205 (PRN E24)      
1 40889U 15045A   24108.52009530 -.00000027  00000+0  00000+0 0  9991
2 40889  55.2482 243.4446 0004844  43.5983 316.3966  1.70473947 53538
GSAT0206 (PRN E30)      
1 40890U 15045B   24107.56757351 -.00000023  00000+0  00000+0 0  9993
2 40890  55.2477 243.4662 0002844  46.0551 313.9271  1.70473857 53544
GSAT0209 (PRN E09)      
1 41174U 15079A   24108.91072375  .00000058  00000+0  00000+0 0  9999
2 41174  55.3974 122.9690 0005433 306.3763  53.6205  1.70474619 51886
GSAT0208 (PRN E08)      
1 41175U 15079B   24108.54386610  .00000055  00000+0  00000+0 0  9996
2 41175  55.3949 122.9768 0004793 305.9167  54.0845  1.70474547 51713
GSAT0211 (PRN E02)      
1 41549U 16030A   24107.49328569 -.00000023  00000+0  00000+0 0  9997
2 41549  55.3962 243.4729 0002617   8.8753 351.0881  1.70474007 49170
GSAT0210 (PRN E01)      
1 41550U 16030B   24108.37111490 -.00000026  00000+0  00000+0 0  9993
2 41550  55.3949 243.4498 0000944 299.5306  60.4170  1.70474003 49183
GSAT0207 (PRN E07)      
1 41859U 16069A   24108.61782111  .00000055  00000+0  00000+0 0  9999
2 41859  55.0615 122.9935 0005841 295.1096  64.8758  1.70474563 45927
GSAT0212 (PRN E03)      
1 41860U 16069B   24107.88559666  .00000049  00000+0  00000+0 0  9999
2 41860  55.0593 123.0100 0004137 313.0885  46.9204  1.70474812 46164
GSAT0213 (PRN E04)      
1 41861U 16069C   24108.25352196  .00000052  00000+0  00000+0 0  9995
2 41861  55.0612 123.0063 0005941 280.0612  79.9165  1.70473375 46031
GSAT0214 (PRN E05)      
1 41862U 16069D   24107.81278178  .00000049  00000+0  00000+0 0  9990
2 41862  55.0594 123.0123 0004914 282.1683  77.8199  1.70474877 46153
GSAT0215 (PRN E21)      
1 43055U 17079A   24108.30229698 -.00000026  00000+0  00000+0 0  9992
2 43055  55.3723 243.2733 0000470 270.7617  89.1903  1.70474693 39507
GSAT0216 (PRN E25)      
1 43056U 17079B   24109.18061838 -.00000028  00000+0  00000+0 0  9992
2 43056  55.3721 243.2491 0002050 286.4146  73.5179  1.70474834 39503
GSAT0217 (PRN E27)      
1 43057U 17079C   24108.22790569 -.00000026  00000+0  00000+0 0  9995
2 43057  55.3706 243.2741 0001724 319.9740  39.9707  1.70474749 39502
GSAT0218 (PRN E31)      
1 43058U 17079D   24108.44793840 -.00000026  00000+0  00000+0 0  9995
2 43058  55.3710 243.2655 0002456 278.5181  81.4110  1.70474717 39532
GSAT0221 (PRN E15)      
1 43564U 18060A   24108.34838100 -.00000108  00000+0  00000+0 0  9997
2 43564  57.3024   3.1063 0003617 313.6369  46.3632  1.70475519 35692
GSAT0222 (PRN E33)      
1 43565U 18060B   24107.39359900 -.00000110  00000+0  00000+0 0  9991
2 43565  57.3058   3.1338 0002823 285.0607  74.9371  1.70475381 35717
GSAT0219 (PRN E36)      
1 43566U 18060C   24105.85583187 -.00000112  00000+0  00000+0 0  9999
2 43566  57.3049   3.1772 0003905 323.1263  36.8758  1.70475562 35665
GSAT0220 (PRN E13)      
1 43567U 18060D   24107.24956511 -.00000110  00000+0  00000+0 0  9998
2 43567  57.3048   3.1394 0004180 314.7453  45.2497  1.70475688 35672
GSAT0223 (PRN E34)      
1 49809U 21116A   24107.40348424 -.00000110  00000+0  00000+0 0  9995
2 49809  57.2955   3.0300 0000181 295.8660 248.9819  1.70475636 14686
GSAT0224 (PRN E10)      
1 49810U 21116B   24109.54867278 -.00000104  00000+0  00000+0 0  9990
2 49810  57.2963   2.9707 0000709 343.3724 190.5309  1.70475880 14735
